[{"OBJECT_NAME":"STARLINK-5303","OBJECT_ID":"2023-021C","EPOCH":"2026-03-09T19:15:47.208672","MEAN_MOTION":14.98330043,"ECCENTRICITY":0.00030645,"INCLINATION":70.0006,"RA_OF_ASC_NODE":204.2304,"ARG_OF_PERICENTER":269.6598,"MEAN_ANOMALY":90.421,"EPHEMERIS_TYPE":0,"CLASSIFICATION_TYPE":"U","NORAD_CAT_ID":55630,"ELEMENT_SET_NO":999,"REV_AT_EPOCH":16831,"BSTAR":1.049799e-5,"MEAN_MOTION_DOT":3.2e-7,"MEAN_MOTION_DDOT":0},{"OBJECT_NAME":"USA 40 R\/B DEB","OBJECT_ID":"1989-061BL","EPOCH":"2026-03-08T18:14:08.922336","MEAN_MOTION":10.32541686,"ECCENTRICITY":0.22838925,"INCLINATION":56.9874,"RA_OF_ASC_NODE":200.6595,"ARG_OF_PERICENTER":164.6797,"MEAN_ANOMALY":203.6986,"EPHEMERIS_TYPE":0,"CLASSIFICATION_TYPE":"U","NORAD_CAT_ID":23388,"ELEMENT_SET_NO":999,"REV_AT_EPOCH":7306,"BSTAR":0.026272074,"MEAN_MOTION_DOT":0.00054893,"MEAN_MOTION_DDOT":0}]
